[
  {
    "OBJECT_NAME": "STARLINK-33651",
    "OBJECT_ID": "25076V",
    "EPOCH": "2025-11-11T05:33:28.610496",
    "MEAN_MOTION": 15.276452,
    "ECCENTRICITY": 0.0001488,
    "INCLINATION": 42.9998,
    "RA_OF_ASC_NODE": 270.693,
    "ARG_OF_PERICENTER": 267.0299,
    "MEAN_ANOMALY": 93.0382,
    "EPHEMERIS_TYPE": 0,
    "CLASSIFICATION_TYPE": "U",
    "NORAD_CAT_ID": 63588,
    "ELEMENT_SET_NO": 999,
    "REV_AT_EPOCH": 3371,
    "BSTAR": 0.0013614999999999999,
    "MEAN_MOTION_DOT": 0.00037469,
    "MEAN_MOTION_DDOT": 0.0,
    "TLE_LINE1": "1 63588U 25076V   25315.23158114  .00037469  00000+0  13615-2 0  9997",
    "TLE_LINE2": "2 63588  42.9998 270.6930 0001488 267.0299  93.0382 15.27645200 33717",
    "COMMENT": "Grouped by shell and plane from TLE"
  },
  {
    "OBJECT_NAME": "STARLINK-33788",
    "OBJECT_ID": "25076W",
    "EPOCH": "2025-11-11T05:57:32.700960",
    "MEAN_MOTION": 15.27625204,
    "ECCENTRICITY": 0.0001078,
    "INCLINATION": 43.0011,
    "RA_OF_ASC_NODE": 270.8191,
    "ARG_OF_PERICENTER": 272.8085,
    "MEAN_ANOMALY": 87.2644,
    "EPHEMERIS_TYPE": 0,
    "CLASSIFICATION_TYPE": "U",
    "NORAD_CAT_ID": 63589,
    "ELEMENT_SET_NO": 999,
    "REV_AT_EPOCH": 3371,
    "BSTAR": 0.0020257,
    "MEAN_MOTION_DOT": 0.00055982,
    "MEAN_MOTION_DDOT": 0.0,
    "TLE_LINE1": "1 63589U 25076W   25315.24829515  .00055982  00000+0  20257-2 0  9999",
    "TLE_LINE2": "2 63589  43.0011 270.8191 0001078 272.8085  87.2644 15.27625204 33717",
    "COMMENT": "Grouped by shell and plane from TLE"
  },
  {
    "OBJECT_NAME": "STARLINK-33805",
    "OBJECT_ID": "25076X",
    "EPOCH": "2025-11-11T06:12:20.670048",
    "MEAN_MOTION": 15.27637123,
    "ECCENTRICITY": 9.81e-05,
    "INCLINATION": 43.0022,
    "RA_OF_ASC_NODE": 270.887,
    "ARG_OF_PERICENTER": 264.8164,
    "MEAN_ANOMALY": 95.2576,
    "EPHEMERIS_TYPE": 0,
    "CLASSIFICATION_TYPE": "U",
    "NORAD_CAT_ID": 63590,
    "ELEMENT_SET_NO": 999,
    "REV_AT_EPOCH": 3371,
    "BSTAR": 0.0021422,
    "MEAN_MOTION_DOT": 0.00059264,
    "MEAN_MOTION_DDOT": 0.0,
    "TLE_LINE1": "1 63590U 25076X   25315.25857257  .00059264  00000+0  21422-2 0  9998",
    "TLE_LINE2": "2 63590  43.0022 270.8870 0000981 264.8164  95.2576 15.27637123 33712",
    "COMMENT": "Grouped by shell and plane from TLE"
  },
  {
    "OBJECT_NAME": "STARLINK-33666",
    "OBJECT_ID": "25076Z",
    "EPOCH": "2025-11-11T05:50:10.062528",
    "MEAN_MOTION": 15.27625967,
    "ECCENTRICITY": 8.22e-05,
    "INCLINATION": 43.0,
    "RA_OF_ASC_NODE": 270.7747,
    "ARG_OF_PERICENTER": 288.0558,
    "MEAN_ANOMALY": 72.0203,
    "EPHEMERIS_TYPE": 0,
    "CLASSIFICATION_TYPE": "U",
    "NORAD_CAT_ID": 63592,
    "ELEMENT_SET_NO": 999,
    "REV_AT_EPOCH": 3371,
    "BSTAR": 0.0020475,
    "MEAN_MOTION_DOT": 0.00056593,
    "MEAN_MOTION_DDOT": 0.0,
    "TLE_LINE1": "1 63592U 25076Z   25315.24317202  .00056593  00000+0  20475-2 0  9999",
    "TLE_LINE2": "2 63592  43.0000 270.7747 0000822 288.0558  72.0203 15.27625967 33714",
    "COMMENT": "Grouped by shell and plane from TLE"
  },
  {
    "OBJECT_NAME": "STARLINK-33723",
    "OBJECT_ID": "25076AA",
    "EPOCH": "2025-11-11T06:49:07.759776",
    "MEAN_MOTION": 15.27629083,
    "ECCENTRICITY": 0.0003092,
    "INCLINATION": 43.0027,
    "RA_OF_ASC_NODE": 270.2236,
    "ARG_OF_PERICENTER": 246.9607,
    "MEAN_ANOMALY": 113.0919,
    "EPHEMERIS_TYPE": 0,
    "CLASSIFICATION_TYPE": "U",
    "NORAD_CAT_ID": 63593,
    "ELEMENT_SET_NO": 999,
    "REV_AT_EPOCH": 3372,
    "BSTAR": 0.0012936,
    "MEAN_MOTION_DOT": 0.00035564,
    "MEAN_MOTION_DDOT": 0.0,
    "TLE_LINE1": "1 63593U 25076AA  25315.28411759  .00035564  00000+0  12936-2 0  9994",
    "TLE_LINE2": "2 63593  43.0027 270.2236 0003092 246.9607 113.0919 15.27629083 33726",
    "COMMENT": "Grouped by shell and plane from TLE"
  },
  {
    "OBJECT_NAME": "STARLINK-33791",
    "OBJECT_ID": "25076AB",
    "EPOCH": "2025-11-11T05:53:50.684928",
    "MEAN_MOTION": 15.27622722,
    "ECCENTRICITY": 0.0001023,
    "INCLINATION": 43.0007,
    "RA_OF_ASC_NODE": 270.7932,
    "ARG_OF_PERICENTER": 287.3586,
    "MEAN_ANOMALY": 72.7154,
    "EPHEMERIS_TYPE": 0,
    "CLASSIFICATION_TYPE": "U",
    "NORAD_CAT_ID": 63594,
    "ELEMENT_SET_NO": 999,
    "REV_AT_EPOCH": 3371,
    "BSTAR": 0.0014797,
    "MEAN_MOTION_DOT": 0.00040735,
    "MEAN_MOTION_DDOT": 0.0,
    "TLE_LINE1": "1 63594U 25076AB  25315.24572552  .00040735  00000+0  14797-2 0  9993",
    "TLE_LINE2": "2 63594  43.0007 270.7932 0001023 287.3586  72.7154 15.27622722 33714",
    "COMMENT": "Grouped by shell and plane from TLE"
  },
  {
    "OBJECT_NAME": "STARLINK-33831",
    "OBJECT_ID": "25076AC",
    "EPOCH": "2025-11-11T06:54:40.512096",
    "MEAN_MOTION": 15.27616188,
    "ECCENTRICITY": 0.0001376,
    "INCLINATION": 43.0004,
    "RA_OF_ASC_NODE": 270.1954,
    "ARG_OF_PERICENTER": 258.6557,
    "MEAN_ANOMALY": 101.414,
    "EPHEMERIS_TYPE": 0,
    "CLASSIFICATION_TYPE": "U",
    "NORAD_CAT_ID": 63595,
    "ELEMENT_SET_NO": 999,
    "REV_AT_EPOCH": 3372,
    "BSTAR": 0.00075917,
    "MEAN_MOTION_DOT": 0.0002071,
    "MEAN_MOTION_DDOT": 0.0,
    "TLE_LINE1": "1 63595U 25076AC  25315.28796889  .00020710  00000+0  75917-3 0  9992",
    "TLE_LINE2": "2 63595  43.0004 270.1954 0001376 258.6557 101.4140 15.27616188 33725",
    "COMMENT": "Grouped by shell and plane from TLE"
  },
  {
    "OBJECT_NAME": "STARLINK-34465",
    "OBJECT_ID": "25130A",
    "EPOCH": "2025-11-11T06:35:20.202432",
    "MEAN_MOTION": 15.30215202,
    "ECCENTRICITY": 0.0001353,
    "INCLINATION": 53.1592,
    "RA_OF_ASC_NODE": 278.5405,
    "ARG_OF_PERICENTER": 82.7047,
    "MEAN_ANOMALY": 277.4107,
    "EPHEMERIS_TYPE": 0,
    "CLASSIFICATION_TYPE": "U",
    "NORAD_CAT_ID": 64438,
    "ELEMENT_SET_NO": 999,
    "REV_AT_EPOCH": 2257,
    "BSTAR": 0.0016711,
    "MEAN_MOTION_DOT": 0.00049489,
    "MEAN_MOTION_DDOT": 0.0,
    "TLE_LINE1": "1 64438U 25130A   25315.27453938  .00049489  00000+0  16711-2 0  9994",
    "TLE_LINE2": "2 64438  53.1592 278.5405 0001353  82.7047 277.4107 15.30215202 22578",
    "COMMENT": "Grouped by shell and plane from TLE"
  },
  {
    "OBJECT_NAME": "STARLINK-34456",
    "OBJECT_ID": "25130B",
    "EPOCH": "2025-11-11T06:20:08.275488",
    "MEAN_MOTION": 15.30214133,
    "ECCENTRICITY": 0.0001113,
    "INCLINATION": 53.16,
    "RA_OF_ASC_NODE": 278.4731,
    "ARG_OF_PERICENTER": 104.9559,
    "MEAN_ANOMALY": 255.1565,
    "EPHEMERIS_TYPE": 0,
    "CLASSIFICATION_TYPE": "U",
    "NORAD_CAT_ID": 64439,
    "ELEMENT_SET_NO": 999,
    "REV_AT_EPOCH": 2257,
    "BSTAR": 0.0009067,
    "MEAN_MOTION_DOT": 0.00026602,
    "MEAN_MOTION_DDOT": 0.0,
    "TLE_LINE1": "1 64439U 25130B   25315.26398467  .00026602  00000+0  90670-3 0  9998",
    "TLE_LINE2": "2 64439  53.1600 278.4731 0001113 104.9559 255.1565 15.30214133 22572",
    "COMMENT": "Grouped by shell and plane from TLE"
  },
  {
    "OBJECT_NAME": "STARLINK-34410",
    "OBJECT_ID": "25130C",
    "EPOCH": "2025-11-11T04:32:24.501408",
    "MEAN_MOTION": 15.30215631,
    "ECCENTRICITY": 0.0001319,
    "INCLINATION": 53.159,
    "RA_OF_ASC_NODE": 278.7135,
    "ARG_OF_PERICENTER": 95.9459,
    "MEAN_ANOMALY": 264.1692,
    "EPHEMERIS_TYPE": 0,
    "CLASSIFICATION_TYPE": "U",
    "NORAD_CAT_ID": 64440,
    "ELEMENT_SET_NO": 999,
    "REV_AT_EPOCH": 2256,
    "BSTAR": 0.0011406,
    "MEAN_MOTION_DOT": 0.00033593,
    "MEAN_MOTION_DDOT": 0.0,
    "TLE_LINE1": "1 64440U 25130C   25315.18917247  .00033593  00000+0  11406-2 0  9990",
    "TLE_LINE2": "2 64440  53.1590 278.7135 0001319  95.9459 264.1692 15.30215631 22563",
    "COMMENT": "Grouped by shell and plane from TLE"
  },
  {
    "OBJECT_NAME": "STARLINK-34453",
    "OBJECT_ID": "25130D",
    "EPOCH": "2025-11-11T06:58:07.837536",
    "MEAN_MOTION": 15.30217629,
    "ECCENTRICITY": 9.85e-05,
    "INCLINATION": 53.161,
    "RA_OF_ASC_NODE": 278.6336,
    "ARG_OF_PERICENTER": 86.7173,
    "MEAN_ANOMALY": 273.3941,
    "EPHEMERIS_TYPE": 0,
    "CLASSIFICATION_TYPE": "U",
    "NORAD_CAT_ID": 64441,
    "ELEMENT_SET_NO": 999,
    "REV_AT_EPOCH": 2257,
    "BSTAR": 0.0011372,
    "MEAN_MOTION_DOT": 0.00033492,
    "MEAN_MOTION_DDOT": 0.0,
    "TLE_LINE1": "1 64441U 25130D   25315.29036849  .00033492  00000+0  11372-2 0  9993",
    "TLE_LINE2": "2 64441  53.1610 278.6336 0000985  86.7173 273.3941 15.30217629 22577",
    "COMMENT": "Grouped by shell and plane from TLE"
  },
  {
    "OBJECT_NAME": "STARLINK-34404",
    "OBJECT_ID": "25130E",
    "EPOCH": "2025-11-11T06:39:53.635104",
    "MEAN_MOTION": 15.30207292,
    "ECCENTRICITY": 0.0001374,
    "INCLINATION": 53.1594,
    "RA_OF_ASC_NODE": 278.5532,
    "ARG_OF_PERICENTER": 95.9824,
    "MEAN_ANOMALY": 264.1334,
    "EPHEMERIS_TYPE": 0,
    "CLASSIFICATION_TYPE": "U",
    "NORAD_CAT_ID": 64442,
    "ELEMENT_SET_NO": 999,
    "REV_AT_EPOCH": 2257,
    "BSTAR": 0.0005992300000000001,
    "MEAN_MOTION_DOT": 0.00017434,
    "MEAN_MOTION_DDOT": 0.0,
    "TLE_LINE1": "1 64442U 25130E   25315.27770411  .00017434  00000+0  59923-3 0  9995",
    "TLE_LINE2": "2 64442  53.1594 278.5532 0001374  95.9824 264.1334 15.30207292 22573",
    "COMMENT": "Grouped by shell and plane from TLE"
  },
  {
    "OBJECT_NAME": "STARLINK-34403",
    "OBJECT_ID": "25130F",
    "EPOCH": "2025-11-11T04:35:26.979936",
    "MEAN_MOTION": 15.3020932,
    "ECCENTRICITY": 0.0001565,
    "INCLINATION": 53.1596,
    "RA_OF_ASC_NODE": 278.7246,
    "ARG_OF_PERICENTER": 102.2165,
    "MEAN_ANOMALY": 257.9011,
    "EPHEMERIS_TYPE": 0,
    "CLASSIFICATION_TYPE": "U",
    "NORAD_CAT_ID": 64443,
    "ELEMENT_SET_NO": 999,
    "REV_AT_EPOCH": 2256,
    "BSTAR": 0.0014766000000000002,
    "MEAN_MOTION_DOT": 0.00043644,
    "MEAN_MOTION_DDOT": 0.0,
    "TLE_LINE1": "1 64443U 25130F   25315.19128449  .00043644  00000+0  14766-2 0  9992",
    "TLE_LINE2": "2 64443  53.1596 278.7246 0001565 102.2165 257.9011 15.30209320 22567",
    "COMMENT": "Grouped by shell and plane from TLE"
  }
]